{"type": "FeatureCollection", "features": [ {"type": "Feature", "properties": {"norad_id": 37834, "name": "INTELSAT 18 (IS-18)", "group": "intelsat", "lat": 0.031200135170529435, "lon": 55.7615108289554, "alt_km": 35794.841552720696, "timestamp": "2025-12-03T10:52:57.117789+00:00", "meta": {"OBJECT_NAME": "INTELSAT 18 (IS-18)", "OBJECT_ID": "2011-056A", "EPOCH": "2025-12-02T14:38:27.602880", "MEAN_MOTION": 1.00271068, "ECCENTRICITY": 0.0002135, "INCLINATION": 0.0103, "RA_OF_ASC_NODE": 349.7892, "ARG_OF_PERICENTER": 263.574, "MEAN_ANOMALY": 217.9638, "EPHEMERIS_TYPE": 0, "CLASSIFICATION_TYPE": "U", "NORAD_CAT_ID": 37834, "ELEMENT_SET_NO": 999, "REV_AT_EPOCH": 5184, "BSTAR": 0, "MEAN_MOTION_DOT": 7.3e-07, "MEAN_MOTION_DDOT": 0}, "tle": {"line1": "1 37834U 11056A   25336.61004170  .00000073  00000+0  00000+0 0  9994", "line2": "2 37834   0.0103 349.7892 0002135 263.5740 217.9638  1.00271068 51840"}}, "geometry": {"type": "Point", "coordinates": [55.7615108289554, 0.031200135170529435]}}, {"type": "Feature", "properties": {"norad_id": 38098, "name": "INTELSAT 22 (IS-22)", "group": "intelsat", "lat": -0.0103581627108849, "lon": -52.124518141527936, "alt_km": 35781.68716340762, "timestamp": "2025-12-03T10:52:57.117802+00:00", "meta": {"OBJECT_NAME": "INTELSAT 22 (IS-22)", "OBJECT_ID": "2012-011A", "EPOCH": "2025-12-03T00:24:05.382144", "MEAN_MOTION": 1.00271015, "ECCENTRICITY": 0.0001694, "INCLINATION": 0.0031, "RA_OF_ASC_NODE": 359.9028, "ARG_OF_PERICENTER": 257.9899, "MEAN_ANOMALY": 252.3485, "EPHEMERIS_TYPE": 0, "CLASSIFICATION_TYPE": "U", "NORAD_CAT_ID": 38098, "ELEMENT_SET_NO": 999, "REV_AT_EPOCH": 522, "BSTAR": 0, "MEAN_MOTION_DOT": -3.9e-07, "MEAN_MOTION_DDOT": 0}, "tle": {"line1": "1 38098U 12011A   25337.01672896 -.00000039  00000+0  00000+0 0  9993", "line2": "2 38098   0.0031 359.9028 0001694 257.9899 252.3485  1.00271015  5224"}}, "geometry": {"type": "Point", "coordinates": [-52.124518141527936, -0.0103581627108849]}}, {"type": "Feature", "properties": {"norad_id": 38356, "name": "INTELSAT 19 (IS-19)", "group": "intelsat", "lat": 0.03503503228298116, "lon": 41.79833693232099, "alt_km": 35797.991309632795, "timestamp": "2025-12-03T10:52:57.117814+00:00", "meta": {"OBJECT_NAME": "INTELSAT 19 (IS-19)", "OBJECT_ID": "2012-030A", "EPOCH": "2025-12-03T02:33:39.815712", "MEAN_MOTION": 1.00271678, "ECCENTRICITY": 0.0003463, "INCLINATION": 0.0098, "RA_OF_ASC_NODE": 315.3096, "ARG_OF_PERICENTER": 302.459, "MEAN_ANOMALY": 18.8682, "EPHEMERIS_TYPE": 0, "CLASSIFICATION_TYPE": "U", "NORAD_CAT_ID": 38356, "ELEMENT_SET_NO": 999, "REV_AT_EPOCH": 4848, "BSTAR": 0, "MEAN_MOTION_DOT": -3.7e-07, "MEAN_MOTION_DDOT": 0}, "tle": {"line1": "1 38356U 12030A   25337.10671083 -.00000037  00000+0  00000+0 0  9996", "line2": "2 38356   0.0098 315.3096 0003463 302.4590  18.8682  1.00271678 48489"}}, "geometry": {"type": "Point", "coordinates": [41.79833693232099, 0.03503503228298116]}}, {"type": "Feature", "properties": {"norad_id": 38740, "name": "INTELSAT 20 (IS-20)", "group": "intelsat", "lat": -0.014693240867337448, "lon": -55.723472016171904, "alt_km": 35789.43432226573, "timestamp": "2025-12-03T10:52:57.117826+00:00", "meta": {"OBJECT_NAME": "INTELSAT 20 (IS-20)", "OBJECT_ID": "2012-043A", "EPOCH": "2025-12-02T22:40:15.332160", "MEAN_MOTION": 1.00274497, "ECCENTRICITY": 0.0003028, "INCLINATION": 0.0125, "RA_OF_ASC_NODE": 336.6425, "ARG_OF_PERICENTER": 218.4136, "MEAN_ANOMALY": 285.5325, "EPHEMERIS_TYPE": 0, "CLASSIFICATION_TYPE": "U", "NORAD_CAT_ID": 38740, "ELEMENT_SET_NO": 999, "REV_AT_EPOCH": 4878, "BSTAR": 0, "MEAN_MOTION_DOT": 0, "MEAN_MOTION_DDOT": 0}, "tle": {"line1": "1 38740U 12043A   25336.94462190  .00000000  00000+0  00000+0 0  9994", "line2": "2 38740   0.0125 336.6425 0003028 218.4136 285.5325  1.00274497 48780"}}, "geometry": {"type": "Point", "coordinates": [-55.723472016171904, -0.014693240867337448]}}, {"type": "Feature", "properties": {"norad_id": 38749, "name": "INTELSAT 21 (IS-21)", "group": "intelsat", "lat": -0.02670651441221928, "lon": 177.72984390576596, "alt_km": 35782.57568179038, "timestamp": "2025-12-03T10:52:57.117838+00:00", "meta": {"OBJECT_NAME": "INTELSAT 21 (IS-21)", "OBJECT_ID": "2012-045A", "EPOCH": "2025-12-03T03:12:21.108096", "MEAN_MOTION": 1.00269118, "ECCENTRICITY": 0.0002453, "INCLINATION": 0.0176, "RA_OF_ASC_NODE": 321.109, "ARG_OF_PERICENTER": 282.1674, "MEAN_ANOMALY": 179.0426, "EPHEMERIS_TYPE": 0, "CLASSIFICATION_TYPE": "U", "NORAD_CAT_ID": 38749, "ELEMENT_SET_NO": 999, "REV_AT_EPOCH": 4855, "BSTAR": 0, "MEAN_MOTION_DOT": -2.66e-06, "MEAN_MOTION_DDOT": 0}, "tle": {"line1": "1 38749U 12045A   25337.13357764 -.00000266  00000+0  00000+0 0  9992", "line2": "2 38749   0.0176 321.1090 0002453 282.1674 179.0426  1.00269118 48556"}}, "geometry": {"type": "Point", "coordinates": [177.72984390576596, -0.02670651441221928]}}, {"type": "Feature", "properties": {"norad_id": 38867, "name": "INTELSAT 23 (IS-23)", "group": "intelsat", "lat": 0.0020683263678713264, "lon": -177.25827921169244, "alt_km": 35780.28239356776, "timestamp": "2025-12-03T10:52:57.117851+00:00", "meta": {"OBJECT_NAME": "INTELSAT 23 (IS-23)", "OBJECT_ID": "2012-057A", "EPOCH": "2025-12-03T03:13:50.964960", "MEAN_MOTION": 1.0027009, "ECCENTRICITY": 0.0001779, "INCLINATION": 0.0461, "RA_OF_ASC_NODE": 119.6768, "ARG_OF_PERICENTER": 95.6813, "MEAN_ANOMALY": 212.3323, "EPHEMERIS_TYPE": 0, "CLASSIFICATION_TYPE": "U", "NORAD_CAT_ID": 38867, "ELEMENT_SET_NO": 999, "REV_AT_EPOCH": 4798, "BSTAR": 0, "MEAN_MOTION_DOT": -2.65e-06, "MEAN_MOTION_DDOT": 0}, "tle": {"line1": "1 38867U 12057A   25337.13461765 -.00000265  00000+0  00000+0 0  9992", "line2": "2 38867   0.0461 119.6768 0001779  95.6813 212.3323  1.00270090 47982"}}, "geometry": {"type": "Point", "coordinates": [-177.25827921169244, 0.0020683263678713264]}}, {"type": "Feature", "properties": {"norad_id": 39360, "name": "FM-6", "group": "intelsat", "lat": -0.000992959568682613, "lon": 119.56845426887584, "alt_km": 35779.583518917374, "timestamp": "2025-12-03T10:52:57.117863+00:00", "meta": {"OBJECT_NAME": "FM-6", "OBJECT_ID": "2013-058A", "EPOCH": "2025-12-03T04:16:14.816064", "MEAN_MOTION": 1.00269774, "ECCENTRICITY": 0.0002849, "INCLINATION": 0.005, "RA_OF_ASC_NODE": 101.17, "ARG_OF_PERICENTER": 72.0739, "MEAN_ANOMALY": 206.9305, "EPHEMERIS_TYPE": 0, "CLASSIFICATION_TYPE": "U", "NORAD_CAT_ID": 39360, "ELEMENT_SET_NO": 999, "REV_AT_EPOCH": 4410, "BSTAR": 0, "MEAN_MOTION_DOT": 2e-08, "MEAN_MOTION_DDOT": 0}, "tle": {"line1": "1 39360U 13058A   25337.17794926  .00000002  00000+0  00000+0 0  9993", "line2": "2 39360   0.0050 101.1700 0002849  72.0739 206.9305  1.00269774 44109"}}, "geometry": {"type": "Point", "coordinates": [119.56845426887584, -0.000992959568682613]}}, {"type": "Feature", "properties": {"norad_id": 40271, "name": "INTELSAT 30 (IS-30)", "group": "intelsat", "lat": 0.011977241012849783, "lon": 140.71550110543922, "alt_km": 35784.03946647957, "timestamp": "2025-12-03T10:52:57.117875+00:00", "meta": {"OBJECT_NAME": "INTELSAT 30 (IS-30)", "OBJECT_ID": "2014-062A", "EPOCH": "2025-12-03T03:01:52.114368", "MEAN_MOTION": 1.00269916, "ECCENTRICITY": 0.0001184, "INCLINATION": 0.014, "RA_OF_ASC_NODE": 6.9272, "ARG_OF_PERICENTER": 74.8615, "MEAN_ANOMALY": 300.8495, "EPHEMERIS_TYPE": 0, "CLASSIFICATION_TYPE": "U", "NORAD_CAT_ID": 40271, "ELEMENT_SET_NO": 999, "REV_AT_EPOCH": 481, "BSTAR": 0, "MEAN_MOTION_DOT": -1.32e-06, "MEAN_MOTION_DDOT": 0}, "tle": {"line1": "1 40271U 14062A   25337.12629762 -.00000132  00000+0  00000+0 0  9997", "line2": "2 40271   0.0140   6.9272 0001184  74.8615 300.8495  1.00269916  4818"}}, "geometry": {"type": "Point", "coordinates": [140.71550110543922, 0.011977241012849783]}}, {"type": "Feature", "properties": {"norad_id": 40333, "name": "DIRECTV 14", "group": "intelsat", "lat": 0.0037141854376390258, "lon": 136.5305461224582, "alt_km": 35786.16256051389, "timestamp": "2025-12-03T10:52:57.117887+00:00", "meta": {"OBJECT_NAME": "DIRECTV 14", "OBJECT_ID": "2014-078B", "EPOCH": "2025-12-03T04:00:38.641824", "MEAN_MOTION": 1.00269503, "ECCENTRICITY": 3.1e-05, "INCLINATION": 0.0192, "RA_OF_ASC_NODE": 324.3141, "ARG_OF_PERICENTER": 236.1339, "MEAN_ANOMALY": 192.7545, "EPHEMERIS_TYPE": 0, "CLASSIFICATION_TYPE": "U", "NORAD_CAT_ID": 40333, "ELEMENT_SET_NO": 999, "REV_AT_EPOCH": 4007, "BSTAR": 0, "MEAN_MOTION_DOT": -1.06e-06, "MEAN_MOTION_DDOT": 0}, "tle": {"line1": "1 40333U 14078B   25337.16711391 -.00000106  00000+0  00000+0 0  9998", "line2": "2 40333   0.0192 324.3141 0000310 236.1339 192.7545  1.00269503 40076"}}, "geometry": {"type": "Point", "coordinates": [136.5305461224582, 0.0037141854376390258]}}, {"type": "Feature", "properties": {"norad_id": 40663, "name": "DIRECTV 15", "group": "intelsat", "lat": 0.02283820312715818, "lon": 132.87682145977288, "alt_km": 35787.34306924519, "timestamp": "2025-12-03T10:52:57.117898+00:00", "meta": {"OBJECT_NAME": "DIRECTV 15", "OBJECT_ID": "2015-026A", "EPOCH": "2025-12-02T15:00:23.376384", "MEAN_MOTION": 1.00270418, "ECCENTRICITY": 2.99e-05, "INCLINATION": 0.0433, "RA_OF_ASC_NODE": 100.4968, "ARG_OF_PERICENTER": 166.0499, "MEAN_ANOMALY": 287.4051, "EPHEMERIS_TYPE": 0, "CLASSIFICATION_TYPE": "U", "NORAD_CAT_ID": 40663, "ELEMENT_SET_NO": 999, "REV_AT_EPOCH": 3849, "BSTAR": 0, "MEAN_MOTION_DOT": -8.2e-07, "MEAN_MOTION_DDOT": 0}, "tle": {"line1": "1 40663U 15026A   25336.62527056 -.00000082  00000+0  00000+0 0  9994", "line2": "2 40663   0.0433 100.4968 0000299 166.0499 287.4051  1.00270418 38498"}}, "geometry": {"type": "Point", "coordinates": [132.87682145977288, 0.02283820312715818]}}]}